METHANESAT              
1 59101U 24043D   25252.28380426  .00002934  00000+0  26781-3 0  9992
2 59101  97.8103  18.0057 0010157 223.9531 136.0883 14.95817169 82624
GOSAT-GW (IBUKI GW)     
1 64694U 25141A   25252.28369319  .00000873  00000+0  16218-3 0  9997
2 64694  98.0272 189.5839 0001360  84.8173 275.3187 14.67574849 10642
GHGSAT-C1               
1 46278U 20061G   25252.30219554  .00017711  00000+0  28146-3 0  9991
2 46278  97.2432 326.7002 0002024  41.4674 318.6733 15.53381406279634
GHGSAT-C12              
1 64529U 25135B   25252.23701948  .00003568  00000+0  18124-3 0  9992
2 64529  97.4545   5.4754 0006531  77.1615 283.0348 15.17513600 12177
GHGSAT-C13              
1 64548U 25135W   25252.24970527  .00003447  00000+0  17084-3 0  9995
2 64548  97.4568   5.6330 0002061  55.3211 304.8217 15.18416554 12188
GHGSAT-C2               
1 47509U 21006DA  25252.12740753  .00005615  00000+0  17654-3 0  9991
2 47509  97.2596 299.2755 0007538  99.0591 261.1505 15.33343374256717
GHGSAT-C3               
1 52737U 22057F   25252.33003623  .00006480  00000+0  22980-3 0  9997
2 52737  97.6242  24.1550 0007321  44.6278 315.5550 15.29417644182533
GHGSAT-C4               
1 52746U 22057Q   25252.34853054  .00006242  00000+0  22156-3 0  9990
2 52746  97.6170  23.2854 0007275  31.0459 329.1209 15.29406508182549
GHGSAT-C5               
1 52744U 22057N   25252.29974229  .00006324  00000+0  22443-3 0  9990
2 52744  97.6329  25.3714 0008238  40.1567 320.0280 15.29397607182539
GHGSAT-C6               
1 56204U 23054AC  25252.25841689  .00011116  00000+0  24976-3 0  9990
2 56204  97.3204 153.7515 0008224   1.6622 358.4652 15.43485353134983
GHGSAT-C7               
1 56209U 23054AH  25252.29664192  .00009374  00000+0  21801-3 0  9998
2 56209  97.3165 153.2530 0008191 353.0906   7.0227 15.42502838134980
GHGSAT-C8               
1 56186U 23054J   25252.29750690  .00010870  00000+0  24428-3 0  9992
2 56186  97.3173 153.2577 0006607  27.9807 332.1795 15.43499637134975
SENTINEL-5P             
1 42969U 17064A   25252.24568578  .00000081  00000+0  59409-4 0  9998
2 42969  98.7616 191.7438 0001017  74.4940 285.6348 14.19544996409707
ENMAP                   
1 52159U 22033C   25252.31146965  .00000551  00000+0  89447-4 0  9999
2 52159  97.9777 333.5896 0001265  92.8206 267.3148 14.74975334185257
PRISMA                  
1 44072U 19015A   25252.24555919  .00001006  00000+0  12815-3 0  9995
2 44072  97.8692 326.0538 0001394  93.7349 266.4024 14.83686568350398
SENTINEL-2A             
1 40697U 15028A   25252.30555612  .00000140  00000+0  69993-4 0  9999
2 40697  98.5632 326.1742 0001149  98.1798 261.9515 14.30824002533568
SENTINEL-2B             
1 42063U 17013A   25252.29840734 -.00000045  00000+0 -45462-6 0  9997
2 42063  98.5636 326.1103 0001155  91.5112 268.6203 14.30818850444479
SENTINEL-2C             
1 60989U 24157A   25252.19370377  .00000130  00000+0  66357-4 0  9998
2 60989  98.5626 326.0766 0001165  90.4074 269.7242 14.30826073 52808
LANDSAT 8               
1 39084U 13008A   25252.23567645  .00000396  00000+0  97965-4 0  9997
2 39084  98.2187 321.6450 0001204  95.0298 265.1038 14.57112754656988
LANDSAT 9               
1 49260U 21088A   25252.20140743  .00000407  00000+0  10051-3 0  9997
2 49260  98.2206 321.6235 0001202  98.3301 261.8034 14.57108090210081
